COSMOS 2251 DEB         
1 34009U 93036GU  17345.94195095  .00000040  00000-0  24719-4 0  9990
2 34009  74.0381 266.1236 0029100 324.2810 110.9730 14.31355703461126
